EXO-0                   
1 59175U 23174DK  26068.71046781  .00011582  00000+0  36716-3 0  9992
2 59175  97.3864 148.9039 0009878 157.1125 203.0559 15.32821991129797
STARLINK-34331          
1 64204U 25117B   26068.30197446  .00023801  00000+0  81344-3 0  9994
2 64204  53.1615  41.5976 0001375  77.5931 282.5224 15.30187866 44467
